{"epoch":1784710044,"count":18256,"objects":[{"id":"69104","name":"QIANFAN-145","type":"PAYLOAD","l1":"1 69104U 26108A   26201.93847582 -.01765632  00000-0 -26868+1 0  9996","l2":"2 69104  89.0100  18.6720 0017643   0.7502 359.3675 13.56266474  8997"},{"id":"69105","name":"QIANFAN-146","type":"PAYLOAD","l1":"1 69105U 26108B   26201.95466038 -.01816044  00000-0 -19845+1 0  9993","l2":"2 69105  89.0117  18.5539 0022466 359.4610   0.6528 13.76751487  9063"},{"id":"69106","name":"QIANFAN-147","type":"PAYLOAD","l1":"1 69106U 26108C   26202.54300866  .00000024  00000-0  16014-4 0  9995","l2":"2 69106  89.0112  18.6154 0018607   4.5964 355.5359 13.57849400  9061"},{"id":"69107","name":"QIANFAN-148","type":"PAYLOAD","l1":"1 69107U 26108D   26201.93579100 -.01844908  00000-0 -28884+1 0  9991","l2":"2 69107  89.0098  18.6701 0017298  13.7985 346.3638 13.54661188  8983"},{"id":"69108","name":"QIANFAN-149","type":"PAYLOAD","l1":"1 69108U 26108E   26201.91467606 -.01941770  00000-0 -32013+1 0  9991","l2":"2 69108  89.0099  18.6861 0019521  20.8890 339.3055 13.51589680  8985"},{"id":"69109","name":"QIANFAN-150","type":"PAYLOAD","l1":"1 69109U 26108F   26201.91025966 -.02040308  00000-0 -30743+1 0  9997","l2":"2 69109  89.0105  18.6520 0020730   9.5828 350.5718 13.56791534  8995"},{"id":"69110","name":"QIANFAN-151","type":"PAYLOAD","l1":"1 69110U 26108G   26201.95884272 -.01774516  00000-0 -27927+1 0  9990","l2":"2 69110  89.0100  18.6583 0020733  22.0894 338.1148 13.54136714  8997"},{"id":"69111","name":"QIANFAN-152","type":"PAYLOAD","l1":"1 69111U 26108H   26201.93269116 -.01892323  00000-0 -29751+1 0  9997","l2":"2 69111  89.0101  18.6537 0015295  16.4598 343.7048 13.54522697  9006"},{"id":"69112","name":"QIANFAN-153","type":"PAYLOAD","l1":"1 69112U 26108J   26201.92591286 -.02002455  00000-0 -27462+1 0  9990","l2":"2 69112  89.0091  18.6504 0022595   5.1644 354.9743 13.62589757  8999"},{"id":"69113","name":"QIANFAN-154","type":"PAYLOAD","l1":"1 69113U 26108K   26201.92500179 -.01878844  00000-0 -32312+1 0  9994","l2":"2 69113  89.0108  18.6726 0022588   5.4402 354.6989 13.48706778  8999"},{"id":"69114","name":"QIANFAN-155","type":"PAYLOAD","l1":"1 69114U 26108L   26202.28941472  .00000028  00000-0  22005-4 0  9990","l2":"2 69114  89.0130  18.6206 0022228  12.6400 347.5308 13.58490545  9043"},{"id":"69115","name":"QIANFAN-156","type":"PAYLOAD","l1":"1 69115U 26108M   26201.92208456 -.01779180  00000-0 -26999+1 0  9996","l2":"2 69115  89.0117  18.6418 0019814  14.4542 345.7175 13.56459897  9010"},{"id":"69116","name":"QIANFAN-157","type":"PAYLOAD","l1":"1 69116U 26108N   26201.95572481 -.01838827  00000-0 -24178+1 0  9993","l2":"2 69116  89.0097  18.5850 0021673  22.2829 337.9267 13.65534641  9047"},{"id":"69117","name":"QIANFAN-158","type":"PAYLOAD","l1":"1 69117U 26108P   26201.92465014 -.01766443  00000-0 -26276+1 0  9999","l2":"2 69117  89.0104  18.6163 0021510  10.1728 349.9857 13.57670639  9024"},{"id":"69118","name":"QIANFAN-159","type":"PAYLOAD","l1":"1 69118U 26108Q   26201.92163841 -.01794780  00000-0 -28407+1 0  9996","l2":"2 69118  89.0092  18.6305 0015975  12.3425 347.8116 13.53859862  9012"},{"id":"69119","name":"QIANFAN-160","type":"PAYLOAD","l1":"1 69119U 26108R   26201.96928677 -.01872839  00000-0 -31516+1 0  9994","l2":"2 69119  89.0117  18.6429 0022891   9.5417 350.6164 13.50084563  9012"}]}