{"fetched_at":"2026-07-22T07:09:25.426Z","source":"https://celestrak.org/NORAD/elements/gp.php?GROUP=qianfan&FORMAT=JSON","constellation":"qianfan","records":[{"OBJECT_NAME":"QIANFAN-145","OBJECT_ID":"2026-108A","EPOCH":"2026-07-20T22:31:24.310848","CLASSIFICATION_TYPE":"U","MEAN_MOTION":13.56266474,"ECCENTRICITY":0.00176427,"INCLINATION":89.01,"RA_OF_ASC_NODE":18.672,"ARG_OF_PERICENTER":0.7502,"MEAN_ANOMALY":359.3675,"EPHEMERIS_TYPE":0,"NORAD_CAT_ID":69104,"ELEMENT_SET_NO":999,"REV_AT_EPOCH":899,"BSTAR":-2.686844,"MEAN_MOTION_DOT":-0.01765632,"MEAN_MOTION_DDOT":0},{"OBJECT_NAME":"QIANFAN-146","OBJECT_ID":"2026-108B","EPOCH":"2026-07-20T22:54:42.656832","CLASSIFICATION_TYPE":"U","MEAN_MOTION":13.76751487,"ECCENTRICITY":0.00224664,"INCLINATION":89.0117,"RA_OF_ASC_NODE":18.5539,"ARG_OF_PERICENTER":359.461,"MEAN_ANOMALY":0.6528,"EPHEMERIS_TYPE":0,"NORAD_CAT_ID":69105,"ELEMENT_SET_NO":999,"REV_AT_EPOCH":906,"BSTAR":-1.9844877,"MEAN_MOTION_DOT":-0.01816044,"MEAN_MOTION_DDOT":0},{"OBJECT_NAME":"QIANFAN-147","OBJECT_ID":"2026-108C","EPOCH":"2026-07-21T13:01:55.948224","CLASSIFICATION_TYPE":"U","MEAN_MOTION":13.578494,"ECCENTRICITY":0.00186069,"INCLINATION":89.0112,"RA_OF_ASC_NODE":18.6154,"ARG_OF_PERICENTER":4.5964,"MEAN_ANOMALY":355.5359,"EPHEMERIS_TYPE":0,"NORAD_CAT_ID":69106,"ELEMENT_SET_NO":999,"REV_AT_EPOCH":906,"BSTAR":0.000016014455,"MEAN_MOTION_DOT":2.4e-7,"MEAN_MOTION_DDOT":0},{"OBJECT_NAME":"QIANFAN-148","OBJECT_ID":"2026-108D","EPOCH":"2026-07-20T22:27:32.342400","CLASSIFICATION_TYPE":"U","MEAN_MOTION":13.54661188,"ECCENTRICITY":0.00172985,"INCLINATION":89.0098,"RA_OF_ASC_NODE":18.6701,"ARG_OF_PERICENTER":13.7985,"MEAN_ANOMALY":346.3638,"EPHEMERIS_TYPE":0,"NORAD_CAT_ID":69107,"ELEMENT_SET_NO":999,"REV_AT_EPOCH":898,"BSTAR":-2.8884093,"MEAN_MOTION_DOT":-0.01844908,"MEAN_MOTION_DDOT":0},{"OBJECT_NAME":"QIANFAN-149","OBJECT_ID":"2026-108E","EPOCH":"2026-07-20T21:57:08.011584","CLASSIFICATION_TYPE":"U","MEAN_MOTION":13.5158968,"ECCENTRICITY":0.00195207,"INCLINATION":89.0099,"RA_OF_ASC_NODE":18.6861,"ARG_OF_PERICENTER":20.889,"MEAN_ANOMALY":339.3055,"EPHEMERIS_TYPE":0,"NORAD_CAT_ID":69108,"ELEMENT_SET_NO":999,"REV_AT_EPOCH":898,"BSTAR":-3.2012797,"MEAN_MOTION_DOT":-0.0194177,"MEAN_MOTION_DDOT":0},{"OBJECT_NAME":"QIANFAN-150","OBJECT_ID":"2026-108F","EPOCH":"2026-07-20T21:50:46.434624","CLASSIFICATION_TYPE":"U","MEAN_MOTION":13.56791534,"ECCENTRICITY":0.002073,"INCLINATION":89.0105,"RA_OF_ASC_NODE":18.652,"ARG_OF_PERICENTER":9.5828,"MEAN_ANOMALY":350.5718,"EPHEMERIS_TYPE":0,"NORAD_CAT_ID":69109,"ELEMENT_SET_NO":999,"REV_AT_EPOCH":899,"BSTAR":-3.0742556,"MEAN_MOTION_DOT":-0.02040308,"MEAN_MOTION_DDOT":0},{"OBJECT_NAME":"QIANFAN-151","OBJECT_ID":"2026-108G","EPOCH":"2026-07-20T23:00:44.011008","CLASSIFICATION_TYPE":"U","MEAN_MOTION":13.54136714,"ECCENTRICITY":0.00207328,"INCLINATION":89.01,"RA_OF_ASC_NODE":18.6583,"ARG_OF_PERICENTER":22.0894,"MEAN_ANOMALY":338.1148,"EPHEMERIS_TYPE":0,"NORAD_CAT_ID":69110,"ELEMENT_SET_NO":999,"REV_AT_EPOCH":899,"BSTAR":-2.7926785,"MEAN_MOTION_DOT":-0.01774516,"MEAN_MOTION_DDOT":0},{"OBJECT_NAME":"QIANFAN-152","OBJECT_ID":"2026-108H","EPOCH":"2026-07-20T22:23:04.516224","CLASSIFICATION_TYPE":"U","MEAN_MOTION":13.54522697,"ECCENTRICITY":0.0015295,"INCLINATION":89.0101,"RA_OF_ASC_NODE":18.6537,"ARG_OF_PERICENTER":16.4598,"MEAN_ANOMALY":343.7048,"EPHEMERIS_TYPE":0,"NORAD_CAT_ID":69111,"ELEMENT_SET_NO":999,"REV_AT_EPOCH":900,"BSTAR":-2.9750703,"MEAN_MOTION_DOT":-0.01892323,"MEAN_MOTION_DDOT":0},{"OBJECT_NAME":"QIANFAN-153","OBJECT_ID":"2026-108J","EPOCH":"2026-07-20T22:13:18.871104","CLASSIFICATION_TYPE":"U","MEAN_MOTION":13.62589757,"ECCENTRICITY":0.00225951,"INCLINATION":89.0091,"RA_OF_ASC_NODE":18.6504,"ARG_OF_PERICENTER":5.1644,"MEAN_ANOMALY":354.9743,"EPHEMERIS_TYPE":0,"NORAD_CAT_ID":69112,"ELEMENT_SET_NO":999,"REV_AT_EPOCH":899,"BSTAR":-2.7461921,"MEAN_MOTION_DOT":-0.02002455,"MEAN_MOTION_DDOT":0},{"OBJECT_NAME":"QIANFAN-154","OBJECT_ID":"2026-108K","EPOCH":"2026-07-20T22:12:00.154656","CLASSIFICATION_TYPE":"U","MEAN_MOTION":13.48706778,"ECCENTRICITY":0.00225883,"INCLINATION":89.0108,"RA_OF_ASC_NODE":18.6726,"ARG_OF_PERICENTER":5.4402,"MEAN_ANOMALY":354.6989,"EPHEMERIS_TYPE":0,"NORAD_CAT_ID":69113,"ELEMENT_SET_NO":999,"REV_AT_EPOCH":899,"BSTAR":-3.2312404,"MEAN_MOTION_DOT":-0.01878844,"MEAN_MOTION_DDOT":0},{"OBJECT_NAME":"QIANFAN-155","OBJECT_ID":"2026-108L","EPOCH":"2026-07-21T06:56:45.431808","CLASSIFICATION_TYPE":"U","MEAN_MOTION":13.58490545,"ECCENTRICITY":0.00222278,"INCLINATION":89.013,"RA_OF_ASC_NODE":18.6206,"ARG_OF_PERICENTER":12.64,"MEAN_ANOMALY":347.5308,"EPHEMERIS_TYPE":0,"NORAD_CAT_ID":69114,"ELEMENT_SET_NO":999,"REV_AT_EPOCH":904,"BSTAR":0.000022005224,"MEAN_MOTION_DOT":2.8e-7,"MEAN_MOTION_DDOT":0},{"OBJECT_NAME":"QIANFAN-156","OBJECT_ID":"2026-108M","EPOCH":"2026-07-20T22:07:48.105984","CLASSIFICATION_TYPE":"U","MEAN_MOTION":13.56459897,"ECCENTRICITY":0.00198136,"INCLINATION":89.0117,"RA_OF_ASC_NODE":18.6418,"ARG_OF_PERICENTER":14.4542,"MEAN_ANOMALY":345.7175,"EPHEMERIS_TYPE":0,"NORAD_CAT_ID":69115,"ELEMENT_SET_NO":999,"REV_AT_EPOCH":901,"BSTAR":-2.6998543,"MEAN_MOTION_DOT":-0.0177918,"MEAN_MOTION_DDOT":0},{"OBJECT_NAME":"QIANFAN-157","OBJECT_ID":"2026-108N","EPOCH":"2026-07-20T22:56:14.623584","CLASSIFICATION_TYPE":"U","MEAN_MOTION":13.65534641,"ECCENTRICITY":0.00216729,"INCLINATION":89.0097,"RA_OF_ASC_NODE":18.585,"ARG_OF_PERICENTER":22.2829,"MEAN_ANOMALY":337.9267,"EPHEMERIS_TYPE":0,"NORAD_CAT_ID":69116,"ELEMENT_SET_NO":999,"REV_AT_EPOCH":904,"BSTAR":-2.4178459,"MEAN_MOTION_DOT":-0.01838827,"MEAN_MOTION_DDOT":0},{"OBJECT_NAME":"QIANFAN-158","OBJECT_ID":"2026-108P","EPOCH":"2026-07-20T22:11:29.772096","CLASSIFICATION_TYPE":"U","MEAN_MOTION":13.57670639,"ECCENTRICITY":0.00215097,"INCLINATION":89.0104,"RA_OF_ASC_NODE":18.6163,"ARG_OF_PERICENTER":10.1728,"MEAN_ANOMALY":349.9857,"EPHEMERIS_TYPE":0,"NORAD_CAT_ID":69117,"ELEMENT_SET_NO":999,"REV_AT_EPOCH":902,"BSTAR":-2.6276361,"MEAN_MOTION_DOT":-0.01766443,"MEAN_MOTION_DDOT":0},{"OBJECT_NAME":"QIANFAN-159","OBJECT_ID":"2026-108Q","EPOCH":"2026-07-20T22:07:09.558624","CLASSIFICATION_TYPE":"U","MEAN_MOTION":13.53859862,"ECCENTRICITY":0.00159749,"INCLINATION":89.0092,"RA_OF_ASC_NODE":18.6305,"ARG_OF_PERICENTER":12.3425,"MEAN_ANOMALY":347.8116,"EPHEMERIS_TYPE":0,"NORAD_CAT_ID":69118,"ELEMENT_SET_NO":999,"REV_AT_EPOCH":901,"BSTAR":-2.8406656,"MEAN_MOTION_DOT":-0.0179478,"MEAN_MOTION_DDOT":0},{"OBJECT_NAME":"QIANFAN-160","OBJECT_ID":"2026-108R","EPOCH":"2026-07-20T23:15:46.376928","CLASSIFICATION_TYPE":"U","MEAN_MOTION":13.50084563,"ECCENTRICITY":0.00228912,"INCLINATION":89.0117,"RA_OF_ASC_NODE":18.6429,"ARG_OF_PERICENTER":9.5417,"MEAN_ANOMALY":350.6164,"EPHEMERIS_TYPE":0,"NORAD_CAT_ID":69119,"ELEMENT_SET_NO":999,"REV_AT_EPOCH":901,"BSTAR":-3.1516097,"MEAN_MOTION_DOT":-0.01872839,"MEAN_MOTION_DDOT":0}]}
